SL-8 R/B                
1 11574U 79089B   26082.20119477  .00000177  00000+0  61613-4 0  9995
2 11574  74.0676  66.0293 0016930 237.1198 122.8329 14.42357904438052
SL-14 R/B               
1 11672U 80005B   26082.01617390  .00000603  00000+0  58316-4 0  9990
2 11672  82.5119 294.5931 0017071 116.5828 243.7143 14.90945002478473
SL-8 R/B                
1 12139U 81003B   26081.97877317  .00023695  00000+0  59800-3 0  9993
2 12139  82.9351 277.7302 0261297 132.3348 230.0346 15.11536823316682
SL-3 R/B                
1 12465U 81046B   26082.21555551  .00013751  00000+0  31645-3 0  9992
2 12465  81.2285 273.4952 0018503 334.7957  25.2381 15.42320131440510
SL-3 R/B                
1 12904U 81103B   26082.25449975  .00007083  00000+0  31275-3 0  9990
2 12904  81.1609 197.5198 0012564 237.6477 122.3539 15.21536484975293
SL-3 R/B                
1 13068U 82013B   26082.19132132  .00005506  00000+0  23733-3 0  9998
2 13068  81.1741 144.9462 0023390 132.7229 227.5977 15.22137972406407
SL-3 R/B                
1 13154U 82039B   26082.24014692  .00003436  00000+0  20720-3 0  9991
2 13154  81.1577 200.3382 0029008 279.8917  79.9034 15.10155136383683
SL-3 R/B                
1 13403U 82079B   26082.24998149  .00007163  00000+0  28353-3 0  9991
2 13403  81.1486 177.0670 0025438 120.0935 240.2826 15.24985475379767
SL-14 R/B               
1 13553U 82092B   26082.24094293  .00000445  00000+0  47192-4 0  9998
2 13553  82.5670 128.7235 0018815 255.0433 174.6020 14.86678398330949
SL-3 R/B                
1 13819U 83010B   26082.21830553  .00018901  00000+0  37389-3 0  9990
2 13819  81.1053 345.6581 0016606   5.8752 354.2684 15.46814812360034
SL-3 R/B                
1 14208U 83075B   26082.27988213  .00013089  00000+0  34137-3 0  9997
2 14208  97.6144  87.3752 0021614 175.7201 184.4233 15.38731176332248
COSMOS 1536             
1 14699U 84013A   26082.31206152  .00008306  00000+0  34086-3 0  9993
2 14699  82.5418  94.3036 0012813 229.0950 130.9179 15.24002720274697
SL-14 R/B               
1 14820U 84027B   26081.82387899  .00000519  00000+0  56582-4 0  9991
2 14820  82.5403 232.6924 0016559 291.8046  68.1408 14.85989545249586
SL-8 R/B                
1 15483U 85006B   26082.17800218  .00000367  00000+0  13030-3 0  9990
2 15483  74.0441 236.3263 0017891 150.4594  22.6630 14.37793097155967
SL-12 R/B(2)            
1 15772U 85042D   26082.20587504  .00000144  00000+0  86026-4 0  9994
2 15772  71.1075  59.1701 0032867 105.7444 342.6727 14.21985992116312
SL-14 R/B               
1 15945U 85069B   26082.20856951  .00000557  00000+0  60121-4 0  9996
2 15945  82.5302  12.2239 0019661 143.6860 216.5696 14.86447608174843
SL-16 R/B               
1 16182U 85097B   26082.19148105  .00000213  00000+0  13091-3 0  9996
2 16182  71.0012 112.1286 0009552 243.7349 178.8991 14.16602182 89141
